{
  "type": "FeatureCollection",
  "features": [
    {
      "type": "Feature",
      "properties": {
        "norad_id": 38833,
        "name": "GPS BIIF-3  (PRN 24)",
        "group": "gps-ops",
        "lat": 42.29599358732461,
        "lon": -71.58006792778045,
        "alt_km": 19930.0789671072,
        "timestamp": "2025-12-26T23:26:42.388604+00:00",
        "meta_object_name": "GPS BIIF-3  (PRN 24)",
        "meta_object_id": "2012-053A",
        "meta_epoch": "2025-12-26T07:30:08.502624",
        "meta_mean_motion": 2.00565043,
        "meta_eccentricity": 0.0176105,
        "meta_inclination": 53.56,
        "meta_ra_of_asc_node": 150.6829,
        "meta_arg_of_pericenter": 64.189,
        "meta_mean_anomaly": 297.6002,
        "meta_ephemeris_type": 0,
        "meta_classification_type": "U",
        "meta_norad_cat_id": 38833,
        "meta_element_set_no": 999,
        "meta_rev_at_epoch": 9597,
        "meta_bstar": 0,
        "meta_mean_motion_dot": 9.8e-07,
        "meta_mean_motion_ddot": 0,
        "tle_line1": "1 38833U 12053A   25360.31259841  .00000098  00000+0  00000+0 0  9990",
        "tle_line2": "2 38833  53.5600 150.6829 0176105  64.1890 297.6002  2.00565043 95976"
      },
      "geometry": {
        "type": "Point",
        "coordinates": [
          -71.58006792778045,
          42.29599358732461
        ]
      }
    },
    {
      "type": "Feature",
      "properties": {
        "norad_id": 39166,
        "name": "GPS BIIF-4  (PRN 27)",
        "group": "gps-ops",
        "lat": -31.050581587490214,
        "lon": 121.26044625376956,
        "alt_km": 20549.00900961505,
        "timestamp": "2025-12-26T23:26:42.388615+00:00",
        "meta_object_name": "GPS BIIF-4  (PRN 27)",
        "meta_object_id": "2013-023A",
        "meta_epoch": "2025-12-26T04:14:33.249408",
        "meta_mean_motion": 2.00564526,
        "meta_eccentricity": 0.0138718,
        "meta_inclination": 54.6404,
        "meta_ra_of_asc_node": 276.0219,
        "meta_arg_of_pericenter": 48.7908,
        "meta_mean_anomaly": 312.4421,
        "meta_ephemeris_type": 0,
        "meta_classification_type": "U",
        "meta_norad_cat_id": 39166,
        "meta_element_set_no": 999,
        "meta_rev_at_epoch": 9241,
        "meta_bstar": 0,
        "meta_mean_motion_dot": -2.2e-07,
        "meta_mean_motion_ddot": 0,
        "tle_line1": "1 39166U 13023A   25360.17677372 -.00000022  00000+0  00000+0 0  9993",
        "tle_line2": "2 39166  54.6404 276.0219 0138718  48.7908 312.4421  2.00564526 92414"
      },
      "geometry": {
        "type": "Point",
        "coordinates": [
          121.26044625376956,
          -31.050581587490214
        ]
      }
    },
    {
      "type": "Feature",
      "properties": {
        "norad_id": 39533,
        "name": "GPS BIIF-5  (PRN 30)",
        "group": "gps-ops",
        "lat": -31.908634652476035,
        "lon": 3.688466508369523,
        "alt_km": 19977.067750603495,
        "timestamp": "2025-12-26T23:26:42.388625+00:00",
        "meta_object_name": "GPS BIIF-5  (PRN 30)",
        "meta_object_id": "2014-008A",
        "meta_epoch": "2025-12-23T16:16:25.020768",
        "meta_mean_motion": 2.00548852,
        "meta_eccentricity": 0.00795532,
        "meta_inclination": 53.5993,
        "meta_ra_of_asc_node": 156.4877,
        "meta_arg_of_pericenter": 225.9161,
        "meta_mean_anomaly": 133.4108,
        "meta_ephemeris_type": 0,
        "meta_classification_type": "U",
        "meta_norad_cat_id": 39533,
        "meta_element_set_no": 999,
        "meta_rev_at_epoch": 8616,
        "meta_bstar": 0,
        "meta_mean_motion_dot": 8.2e-07,
        "meta_mean_motion_ddot": 0,
        "tle_line1": "1 39533U 14008A   25357.67806737  .00000082  00000+0  00000+0 0  9990",
        "tle_line2": "2 39533  53.5993 156.4877 0079553 225.9161 133.4108  2.00548852 86167"
      },
      "geometry": {
        "type": "Point",
        "coordinates": [
          3.688466508369523,
          -31.908634652476035
        ]
      }
    },
    {
      "type": "Feature",
      "properties": {
        "norad_id": 39741,
        "name": "GPS BIIF-6  (PRN 06)",
        "group": "gps-ops",
        "lat": 14.400197327169877,
        "lon": -12.030352303035759,
        "alt_km": 20124.95514084171,
        "timestamp": "2025-12-26T23:26:42.388635+00:00",
        "meta_object_name": "GPS BIIF-6  (PRN 06)",
        "meta_object_id": "2014-026A",
        "meta_epoch": "2025-12-25T22:56:21.833664",
        "meta_mean_motion": 2.00560326,
        "meta_eccentricity": 0.00395057,
        "meta_inclination": 56.5784,
        "meta_ra_of_asc_node": 338.2626,
        "meta_arg_of_pericenter": 319.4307,
        "meta_mean_anomaly": 40.2828,
        "meta_ephemeris_type": 0,
        "meta_classification_type": "U",
        "meta_norad_cat_id": 39741,
        "meta_element_set_no": 999,
        "meta_rev_at_epoch": 8506,
        "meta_bstar": 0,
        "meta_mean_motion_dot": -5.7e-07,
        "meta_mean_motion_ddot": 0,
        "tle_line1": "1 39741U 14026A   25359.95580826 -.00000057  00000+0  00000+0 0  9995",
        "tle_line2": "2 39741  56.5784 338.2626 0039505 319.4307  40.2828  2.00560326 85067"
      },
      "geometry": {
        "type": "Point",
        "coordinates": [
          -12.030352303035759,
          14.400197327169877
        ]
      }
    },
    {
      "type": "Feature",
      "properties": {
        "norad_id": 40105,
        "name": "GPS BIIF-7  (PRN 09)",
        "group": "gps-ops",
        "lat": -35.547760157195334,
        "lon": 65.62547208717967,
        "alt_km": 20268.89049827988,
        "timestamp": "2025-12-26T23:26:42.388645+00:00",
        "meta_object_name": "GPS BIIF-7  (PRN 09)",
        "meta_object_id": "2014-045A",
        "meta_epoch": "2025-12-23T13:11:32.096256",
        "meta_mean_motion": 2.00573211,
        "meta_eccentricity": 0.00324114,
        "meta_inclination": 55.2352,
        "meta_ra_of_asc_node": 95.4677,
        "meta_arg_of_pericenter": 120.1575,
        "meta_mean_anomaly": 240.1743,
        "meta_ephemeris_type": 0,
        "meta_classification_type": "U",
        "meta_norad_cat_id": 40105,
        "meta_element_set_no": 999,
        "meta_rev_at_epoch": 8255,
        "meta_bstar": 0,
        "meta_mean_motion_dot": 8e-08,
        "meta_mean_motion_ddot": 0,
        "tle_line1": "1 40105U 14045A   25357.54967704  .00000008  00000+0  00000+0 0  9994",
        "tle_line2": "2 40105  55.2352  95.4677 0032411 120.1575 240.1743  2.00573211 82556"
      },
      "geometry": {
        "type": "Point",
        "coordinates": [
          65.62547208717967,
          -35.547760157195334
        ]
      }
    },
    {
      "type": "Feature",
      "properties": {
        "norad_id": 40294,
        "name": "GPS BIIF-8  (PRN 03)",
        "group": "gps-ops",
        "lat": 34.68050022020813,
        "lon": 64.46146392121337,
        "alt_km": 20032.220177912055,
        "timestamp": "2025-12-26T23:26:42.388655+00:00",
        "meta_object_name": "GPS BIIF-8  (PRN 03)",
        "meta_object_id": "2014-068A",
        "meta_epoch": "2025-12-26T10:04:05.409984",
        "meta_mean_motion": 2.00565591,
        "meta_eccentricity": 0.0060863,
        "meta_inclination": 56.8679,
        "meta_ra_of_asc_node": 37.6169,
        "meta_arg_of_pericenter": 68.8991,
        "meta_mean_anomaly": 291.813,
        "meta_ephemeris_type": 0,
        "meta_classification_type": "U",
        "meta_norad_cat_id": 40294,
        "meta_element_set_no": 999,
        "meta_rev_at_epoch": 8174,
        "meta_bstar": 0,
        "meta_mean_motion_dot": -4.9e-07,
        "meta_mean_motion_ddot": 0,
        "tle_line1": "1 40294U 14068A   25360.41950706 -.00000049  00000+0  00000+0 0  9998",
        "tle_line2": "2 40294  56.8679  37.6169 0060863  68.8991 291.8130  2.00565591 81745"
      },
      "geometry": {
        "type": "Point",
        "coordinates": [
          64.46146392121337,
          34.68050022020813
        ]
      }
    },
    {
      "type": "Feature",
      "properties": {
        "norad_id": 40534,
        "name": "GPS BIIF-9  (PRN 26)",
        "group": "gps-ops",
        "lat": -38.98913760782706,
        "lon": 174.00715846438575,
        "alt_km": 20187.162776553818,
        "timestamp": "2025-12-26T23:26:42.388665+00:00",
        "meta_object_name": "GPS BIIF-9  (PRN 26)",
        "meta_object_id": "2015-013A",
        "meta_epoch": "2025-12-26T13:11:10.214592",
        "meta_mean_motion": 2.00561683,
        "meta_eccentricity": 0.010755,
        "meta_inclination": 53.1959,
        "meta_ra_of_asc_node": 211.3182,
        "meta_arg_of_pericenter": 38.8079,
        "meta_mean_anomaly": 322.028,
        "meta_ephemeris_type": 0,
        "meta_classification_type": "U",
        "meta_norad_cat_id": 40534,
        "meta_element_set_no": 999,
        "meta_rev_at_epoch": 7836,
        "meta_bstar": 0,
        "meta_mean_motion_dot": 8.8e-07,
        "meta_mean_motion_ddot": 0,
        "tle_line1": "1 40534U 15013A   25360.54942378  .00000088  00000+0  00000+0 0  9998",
        "tle_line2": "2 40534  53.1959 211.3182 0107550  38.8079 322.0280  2.00561683 78363"
      },
      "geometry": {
        "type": "Point",
        "coordinates": [
          174.00715846438575,
          -38.98913760782706
        ]
      }
    }
  ]
}